[{"OBJECT_NAME":"STARLINK-3086","OBJECT_ID":"2021-082BA","EPOCH":"2026-03-09T21:14:26.885760","MEAN_MOTION":14.9832742,"ECCENTRICITY":0.00029477,"INCLINATION":69.9985,"RA_OF_ASC_NODE":293.9514,"ARG_OF_PERICENTER":264.359,"MEAN_ANOMALY":95.7233,"EPHEMERIS_TYPE":0,"CLASSIFICATION_TYPE":"U","NORAD_CAT_ID":49178,"ELEMENT_SET_NO":999,"REV_AT_EPOCH":24716,"BSTAR":-6.826906e-6,"MEAN_MOTION_DOT":-1.74e-6,"MEAN_MOTION_DDOT":0},{"OBJECT_NAME":"BRO-14","OBJECT_ID":"2024-149CM","EPOCH":"2026-03-09T19:21:31.034016","MEAN_MOTION":14.95926897,"ECCENTRICITY":0.000793,"INCLINATION":97.6931,"RA_OF_ASC_NODE":146.3614,"ARG_OF_PERICENTER":74.9836,"MEAN_ANOMALY":285.2263,"EPHEMERIS_TYPE":0,"CLASSIFICATION_TYPE":"U","NORAD_CAT_ID":60551,"ELEMENT_SET_NO":999,"REV_AT_EPOCH":8513,"BSTAR":0.00014547278,"MEAN_MOTION_DOT":1.572e-5,"MEAN_MOTION_DDOT":0}]
